IRIDIUM 39              
1 25042U 97069D   25065.58740242  .00001058  00000+0  27362-3 0  9990
2 25042  86.3859 255.1154 0016018 292.2703  67.6802 14.48957453434109
IRIDIUM 38              
1 25043U 97069E   25065.53450037  .00000610  00000+0  19551-3 0  9990
2 25043  86.3902 276.3652 0003971  82.0667 278.0981 14.37949812431207
IRIDIUM 42              
1 25077U 97077A   25065.55436020  .00000561  00000+0  18568-3 0  9996
2 25077  86.3913 282.4060 0002805  89.4252 270.7266 14.36199598426467
IRIDIUM 44              
1 25078U 97077B   25065.57719263  .00000699  00000+0  21546-3 0  9994
2 25078  86.3899 264.5721 0002960  50.8423 309.3039 14.40075637428933
IRIDIUM 45              
1 25104U 97082A   25065.55920484  .00020079  00000+0  81486-3 0  9990
2 25104  86.3563  97.5678 0126860 356.5285   3.5061 15.17277879436455
IRIDIUM 24              
1 25105U 97082B   25065.54295608  .00000643  00000+0  19003-3 0  9994
2 25105  86.3905 123.8517 0013280  63.5254 296.7306 14.41926564428427
IRIDIUM 51              
1 25262U 98018A   25065.59198005  .00029213  00000+0  83171-3 0  9997
2 25262  86.3840 106.3157 0099284 282.1533  76.8607 15.31078340431281
IRIDIUM 57              
1 25273U 98019B   25065.38005557  .00000705  00000+0  23725-3 0  9990
2 25273  86.4029 188.2902 0002136  93.8807 266.2634 14.35768097410034
